{
    "links": {
        "self": "http://www.neowsapp.com/rest/v1/neo/3408171?api_key=iIulBulltgU6a56xZRHN4H3l9WmuAYTsLGpBGhQ2"
    },
    "id": "3408171",
    "neo_reference_id": "3408171",
    "name": "(2008 GD1)",
    "designation": "2008 GD1",
    "nasa_jpl_url": "http://ssd.jpl.nasa.gov/sbdb.cgi?sstr=3408171",
    "absolute_magnitude_h": 22.5,
    "estimated_diameter": {
        "kilometers": {
            "estimated_diameter_min": 0.0840533402,
            "estimated_diameter_max": 0.1879489824
        },
        "meters": {
            "estimated_diameter_min": 84.0533402073,
            "estimated_diameter_max": 187.9489824394
        },
        "miles": {
            "estimated_diameter_min": 0.0522283081,
            "estimated_diameter_max": 0.1167860472
        },
        "feet": {
            "estimated_diameter_min": 275.7655606856,
            "estimated_diameter_max": 616.6305395464
        }
    },
    "is_potentially_hazardous_asteroid": false,
    "close_approach_data": [
        {
            "close_approach_date": "2008-05-26",
            "close_approach_date_full": "2008-May-26 18:27",
            "epoch_date_close_approach": 1211826420000,
            "relative_velocity": {
                "kilometers_per_second": "10.9157589078",
                "kilometers_per_hour": "39296.7320679806",
                "miles_per_hour": "24417.4611007961"
            },
            "miss_distance": {
                "astronomical": "0.1101389931",
                "lunar": "42.8440683159",
                "kilometers": "16476558.771704697",
                "miles": "10238058.8756389386"
            },
            "orbiting_body": "Earth"
        }
    ],
    "orbital_data": {
        "orbit_id": "12",
        "orbit_determination_date": "2017-04-06 09:03:48",
        "first_observation_date": "2008-04-03",
        "last_observation_date": "2008-04-30",
        "data_arc_in_days": 27,
        "observations_used": 34,
        "orbit_uncertainty": "7",
        "minimum_orbit_intersection": ".0514923",
        "jupiter_tisserand_invariant": "3.315",
        "epoch_osculation": "2459000.5",
        "eccentricity": ".6136447658853251",
        "semi_major_axis": "2.290648905406875",
        "inclination": "5.033723144996359",
        "ascending_node_longitude": "182.7840516018551",
        "orbital_period": "1266.298871641973",
        "perihelion_distance": ".885004194122997",
        "perihelion_argument": "95.99714147023631",
        "aphelion_distance": "3.696293616690754",
        "perihelion_time": "2458445.442939887928",
        "mean_anomaly": "157.7988783810923",
        "mean_motion": ".284293074930406",
        "equinox": "J2000",
        "orbit_class": {
            "orbit_class_type": "APO",
            "orbit_class_description": "Near-Earth asteroid orbits which cross the Earth’s orbit similar to that of 1862 Apollo",
            "orbit_class_range": "a (semi-major axis) > 1.0 AU; q (perihelion) < 1.017 AU"
        }
    },
    "is_sentry_object": false
}